start=new Date('2023-01-27T00:00:00.000Z').valueOf();
sats=[{"ELEMENT_SET_NO":"999","FILE":"3762093","INCLINATION":"53.2133","TLE_LINE2":"2 52626  53.2133 337.9140 0001226  73.9897 286.1230 15.08848568 39569","REF_FRAME":"TEME","ECCENTRICITY":"0.00012260","ARG_OF_PERICENTER":"73.9897","PERIOD":"95.437","MEAN_ANOMALY":"286.1230","NORAD_CAT_ID":"52626","LAUNCH_DATE":"2022-05-14","OBJECT_ID":"2022-052AE","MEAN_MOTION_DDOT":"0.0000000000000","CENTER_NAME":"EARTH","EPOCH":"2023-01-26T16:00:30.631680","SITE":"AFETR","OBJECT_NAME":"STARLINK-3990","OBJECT_TYPE":"PAYLOAD","COUNTRY_CODE":"US","CLASSIFICATION_TYPE":"U","REV_AT_EPOCH":"3956","SEMIMAJOR_AXIS":"6917.854","MEAN_MOTION":"15.08848568","MEAN_ELEMENT_THEORY":"SGP4","MEAN_MOTION_DOT":"0.00008100","EPHEMERIS_TYPE":"0","GP_ID":"223763565","RCS_SIZE":"LARGE","DECAY_DATE":null,"PERIAPSIS":"538.871","RA_OF_ASC_NODE":"337.9140","BSTAR":"0.00052630000000","APOAPSIS":"540.567","TIME_SYSTEM":"UTC","TLE_LINE1":"1 52626U 22052AE  23026.66702120  .00008100  00000-0  52630-3 0  9997"},{"MEAN_MOTION_DOT":"0.00016209","MEAN_ELEMENT_THEORY":"SGP4","RCS_SIZE":"LARGE","GP_ID":"223763583","EPHEMERIS_TYPE":"0","BSTAR":"0.00103390000000","RA_OF_ASC_NODE":"337.7100","DECAY_DATE":null,"PERIAPSIS":"538.593","TLE_LINE1":"1 52627U 22052AF  23026.71117987  .00016209  00000-0  10339-2 0  9993","TIME_SYSTEM":"UTC","APOAPSIS":"540.840","OBJECT_TYPE":"PAYLOAD","OBJECT_NAME":"STARLINK-3992","COUNTRY_CODE":"US","CLASSIFICATION_TYPE":"U","SEMIMAJOR_AXIS":"6917.851","REV_AT_EPOCH":"3957","MEAN_MOTION":"15.08849458","LAUNCH_DATE":"2022-05-14","NORAD_CAT_ID":"52627","EPOCH":"2023-01-26T17:04:05.940768","CENTER_NAME":"EARTH","MEAN_MOTION_DDOT":"0.0000000000000","OBJECT_ID":"2022-052AF","SITE":"AFETR","ELEMENT_SET_NO":"999","REF_FRAME":"TEME","TLE_LINE2":"2 52627  53.2152 337.7100 0001624 130.8233 229.2900 15.08849458 39576","ECCENTRICITY":"0.00016240","INCLINATION":"53.2152","FILE":"3762094","MEAN_ANOMALY":"229.2900","ARG_OF_PERICENTER":"130.8233","PERIOD":"95.437"},{"CENTER_NAME":"EARTH","MEAN_MOTION_DDOT":"0.0000000000000","OBJECT_ID":"2022-052AG","EPOCH":"2023-01-26T07:05:57.080256","SITE":"AFETR","NORAD_CAT_ID":"52628","LAUNCH_DATE":"2022-05-14","FILE":"3761951","INCLINATION":"53.2148","REF_FRAME":"TEME","TLE_LINE2":"2 52628  53.2148 354.5788 0001320  89.7325 270.3818 15.08849867 38925","ECCENTRICITY":"0.00013200","PERIOD":"95.437","ARG_OF_PERICENTER":"89.7325","MEAN_ANOMALY":"270.3818","ELEMENT_SET_NO":"999","DECAY_DATE":null,"RA_OF_ASC_NODE":"354.5788","PERIAPSIS":"538.802","BSTAR":"0.00066337000000","APOAPSIS":"540.628","TLE_LINE1":"1 52628U 22052AG  23026.29579954  .00010288  00000-0  66337-3 0  9994","TIME_SYSTEM":"UTC","MEAN_ELEMENT_THEORY":"SGP4","MEAN_MOTION_DOT":"0.00010288","EPHEMERIS_TYPE":"0","GP_ID":"223758269","RCS_SIZE":"LARGE","REV_AT_EPOCH":"3892","SEMIMAJOR_AXIS":"6917.850","MEAN_MOTION":"15.08849867","OBJECT_NAME":"STARLINK-4001","OBJECT_TYPE":"PAYLOAD","CLASSIFICATION_TYPE":"U","COUNTRY_CODE":"US"},{"MEAN_ANOMALY":"260.8080","PERIOD":"95.437","ARG_OF_PERICENTER":"99.3050","REF_FRAME":"TEME","TLE_LINE2":"2 52629  53.2145 339.8123 0001221  99.3050 260.8080 15.08852625 39500","ECCENTRICITY":"0.00012210","FILE":"3762094","INCLINATION":"53.2145","ELEMENT_SET_NO":"999","SITE":"AFETR","EPOCH":"2023-01-26T05:51:05.951232","OBJECT_ID":"2022-052AH","MEAN_MOTION_DDOT":"0.0000000000000","CENTER_NAME":"EARTH","LAUNCH_DATE":"2022-05-14","NORAD_CAT_ID":"52629","MEAN_MOTION":"15.08852625","SEMIMAJOR_AXIS":"6917.842","REV_AT_EPOCH":"3950","CLASSIFICATION_TYPE":"U","COUNTRY_CODE":"US","OBJECT_TYPE":"PAYLOAD","OBJECT_NAME":"STARLINK-4022","TIME_SYSTEM":"UTC","TLE_LINE1":"1 52629U 22052AH  23026.24381888  .00004847  00000-0  32233-3 0  9999","APOAPSIS":"540.551","BSTAR":"0.00032233000000","DECAY_DATE":null,"RA_OF_ASC_NODE":"339.8123","PERIAPSIS":"538.862","GP_ID":"223763384","RCS_SIZE":"LARGE","EPHEMERIS_TYPE":"0","MEAN_MOTION_DOT":"0.00004847","MEAN_ELEMENT_THEORY":"SGP4"},{"SITE":"AFETR","EPOCH":"2023-01-26T15:39:18.732960","CENTER_NAME":"EARTH","OBJECT_ID":"2022-052AJ","MEAN_MOTION_DDOT":"0.0000000000000","LAUNCH_DATE":"2022-05-14","NORAD_CAT_ID":"52630","MEAN_ANOMALY":"274.5961","PERIOD":"95.437","ARG_OF_PERICENTER":"85.5158","ECCENTRICITY":"0.00011120","TLE_LINE2":"2 52630  53.2143 337.9781 0001112  85.5158 274.5961 15.08843895 39569","REF_FRAME":"TEME","INCLINATION":"53.2143","FILE":"3762094","ELEMENT_SET_NO":"999","TLE_LINE1":"1 52630U 22052AJ  23026.65230015  .00002348  00000-0  16556-3 0  9995","TIME_SYSTEM":"UTC","APOAPSIS":"540.503","BSTAR":"0.00016556000000","RA_OF_ASC_NODE":"337.9781","DECAY_DATE":null,"PERIAPSIS":"538.964","GP_ID":"223763372","RCS_SIZE":"LARGE","EPHEMERIS_TYPE":"0","MEAN_MOTION_DOT":"0.00002348","MEAN_ELEMENT_THEORY":"SGP4","MEAN_MOTION":"15.08843895","SEMIMAJOR_AXIS":"6917.868","REV_AT_EPOCH":"3956","CLASSIFICATION_TYPE":"U","COUNTRY_CODE":"US","OBJECT_TYPE":"PAYLOAD","OBJECT_NAME":"STARLINK-3989"},{"SEMIMAJOR_AXIS":"6917.867","REV_AT_EPOCH":"3913","MEAN_MOTION":"15.08844268","OBJECT_TYPE":"PAYLOAD","OBJECT_NAME":"STARLINK-3794","CLASSIFICATION_TYPE":"U","COUNTRY_CODE":"US","BSTAR":"0.00007756900000","RA_OF_ASC_NODE":"339.8331","DECAY_DATE":null,"PERIAPSIS":"538.439","TLE_LINE1":"1 52631U 22052AK  23026.24013978  .00000947  00000-0  77569-4 0  9993","TIME_SYSTEM":"UTC","APOAPSIS":"541.025","MEAN_MOTION_DOT":"0.00000947","MEAN_ELEMENT_THEORY":"SGP4","GP_ID":"223757018","RCS_SIZE":"LARGE","EPHEMERIS_TYPE":"0","REF_FRAME":"TEME","TLE_LINE2":"2 52631  53.2150 339.8331 0001869  86.2117 273.9089 15.08844268 39134","ECCENTRICITY":"0.00018690","INCLINATION":"53.2150","FILE":"3761951","MEAN_ANOMALY":"273.9089","PERIOD":"95.437","ARG_OF_PERICENTER":"86.2117","ELEMENT_SET_NO":"999","EPOCH":"2023-01-26T05:45:48.076992","CENTER_NAME":"EARTH","MEAN_MOTION_DDOT":"0.0000000000000","OBJECT_ID":"2022-052AK","SITE":"AFETR","LAUNCH_DATE":"2022-05-14","NORAD_CAT_ID":"52631"},{"SEMIMAJOR_AXIS":"6917.810","REV_AT_EPOCH":"3913","MEAN_MOTION":"15.08862983","OBJECT_TYPE":"PAYLOAD","OBJECT_NAME":"STARLINK-3995","COUNTRY_CODE":"US","CLASSIFICATION_TYPE":"U","BSTAR":"0.00201630000000","DECAY_DATE":null,"RA_OF_ASC_NODE":"339.7763","PERIAPSIS":"538.751","TIME_SYSTEM":"UTC","TLE_LINE1":"1 52632U 22052AL  23026.25117971  .00031968  00000-0  20163-2 0  9996","APOAPSIS":"540.599","MEAN_MOTION_DOT":"0.00031968","MEAN_ELEMENT_THEORY":"SGP4","RCS_SIZE":"LARGE","GP_ID":"223757769","EPHEMERIS_TYPE":"0","TLE_LINE2":"2 52632  53.2155 339.7763 0001336  88.8079 271.3066 15.08862983 39133","REF_FRAME":"TEME","ECCENTRICITY":"0.00013360","FILE":"3761951","INCLINATION":"53.2155","MEAN_ANOMALY":"271.3066","ARG_OF_PERICENTER":"88.8079","PERIOD":"95.436","ELEMENT_SET_NO":"999","EPOCH":"2023-01-26T06:01:41.926944","OBJECT_ID":"2022-052AL","MEAN_MOTION_DDOT":"0.0000000000000","CENTER_NAME":"EARTH","SITE":"AFETR","LAUNCH_DATE":"2022-05-14","NORAD_CAT_ID":"52632"},{"NORAD_CAT_ID":"52633","LAUNCH_DATE":"2022-05-14","SITE":"AFETR","CENTER_NAME":"EARTH","MEAN_MOTION_DDOT":"0.0000000000000","OBJECT_ID":"2022-052AM","EPOCH":"2023-01-26T07:05:17.257632","ELEMENT_SET_NO":"999","ARG_OF_PERICENTER":"109.2702","PERIOD":"95.436","MEAN_ANOMALY":"250.8433","FILE":"3762094","INCLINATION":"53.2159","TLE_LINE2":"2 52633  53.2159 339.5815 0001316 109.2702 250.8433 15.08862549 39513","ECCENTRICITY":"0.00013160","REF_FRAME":"TEME","EPHEMERIS_TYPE":"0","RCS_SIZE":"LARGE","GP_ID":"223763378","MEAN_ELEMENT_THEORY":"SGP4","MEAN_MOTION_DOT":"0.00026313","APOAPSIS":"540.587","TLE_LINE1":"1 52633U 22052AM  23026.29533863  .00026313  00000-0  16642-2 0  9998","TIME_SYSTEM":"UTC","DECAY_DATE":null,"PERIAPSIS":"538.766","RA_OF_ASC_NODE":"339.5815","BSTAR":"0.00166420000000","COUNTRY_CODE":"US","CLASSIFICATION_TYPE":"U","OBJECT_NAME":"STARLINK-3994","OBJECT_TYPE":"PAYLOAD","MEAN_MOTION":"15.08862549","REV_AT_EPOCH":"3951","SEMIMAJOR_AXIS":"6917.811"},{"FILE":"3761951","INCLINATION":"53.2174","ECCENTRICITY":"0.00016360","TLE_LINE2":"2 52634  53.2174 339.5240 0001636  92.0785 268.0395 15.08848122 39135","REF_FRAME":"TEME","ARG_OF_PERICENTER":"92.0785","PERIOD":"95.437","MEAN_ANOMALY":"268.0395","ELEMENT_SET_NO":"999","OBJECT_ID":"2022-052AN","MEAN_MOTION_DDOT":"0.0000000000000","CENTER_NAME":"EARTH","EPOCH":"2023-01-26T07:22:33.621312","SITE":"AFETR","NORAD_CAT_ID":"52634","LAUNCH_DATE":"2022-05-14","REV_AT_EPOCH":"3913","SEMIMAJOR_AXIS":"6917.856","MEAN_MOTION":"15.08848122","OBJECT_NAME":"STARLINK-3974","OBJECT_TYPE":"PAYLOAD","COUNTRY_CODE":"US","CLASSIFICATION_TYPE":"U","RA_OF_ASC_NODE":"339.5240","DECAY_DATE":null,"PERIAPSIS":"538.589","BSTAR":"0.00035486000000","APOAPSIS":"540.852","TIME_SYSTEM":"UTC","TLE_LINE1":"1 52634U 22052AN  23026.30733358  .00005365  00000-0  35486-3 0  9994","MEAN_ELEMENT_THEORY":"SGP4","MEAN_MOTION_DOT":"0.00005365","EPHEMERIS_TYPE":"0","RCS_SIZE":"LARGE","GP_ID":"223757269"},{"PERIOD":"95.438","ARG_OF_PERICENTER":"86.4665","MEAN_ANOMALY":"273.6434","INCLINATION":"53.2179","FILE":"3761951","ECCENTRICITY":"0.00009320","TLE_LINE2":"2 52635  53.2179 330.2458 0000932  86.4665 273.6434 15.08840609 39253","REF_FRAME":"TEME","ELEMENT_SET_NO":"999","SITE":"AFETR","MEAN_MOTION_DDOT":"0.0000000000000","OBJECT_ID":"2022-052AP","CENTER_NAME":"EARTH","EPOCH":"2023-01-26T03:29:20.914080","NORAD_CAT_ID":"52635","LAUNCH_DATE":"2022-05-14","MEAN_MOTION":"15.08840609","REV_AT_EPOCH":"3925","SEMIMAJOR_AXIS":"6917.879","COUNTRY_CODE":"US","CLASSIFICATION_TYPE":"U","OBJECT_NAME":"STARLINK-3978","OBJECT_TYPE":"PAYLOAD","APOAPSIS":"540.388","TIME_SYSTEM":"UTC","TLE_LINE1":"1 52635U 22052AP  23026.14538095  .00000240  00000-0  33161-4 0  9994","DECAY_DATE":null,"RA_OF_ASC_NODE":"330.2458","PERIAPSIS":"539.099","BSTAR":"0.00003316100000","EPHEMERIS_TYPE":"0","RCS_SIZE":"LARGE","GP_ID":"223757519","MEAN_ELEMENT_THEORY":"SGP4","MEAN_MOTION_DOT":"0.00000240"}];
